{"type": "FeatureCollection", "features": [ {"type": "Feature", "properties": {"norad_id": 66950, "name": "STARLINK-36111", "group": "last-30-days", "lat": -31.960278600964905, "lon": -52.50763144208886, "alt_km": 422.8862228608132, "timestamp": "2025-12-27T20:30:58.024279+00:00", "meta": {"OBJECT_NAME": "STARLINK-36111", "OBJECT_ID": "2025-286AB", "EPOCH": "2025-12-27T12:00:02.000160", "MEAN_MOTION": 15.50947486, "ECCENTRICITY": 0.0001494, "INCLINATION": 53.1597, "RA_OF_ASC_NODE": 337.0805, "ARG_OF_PERICENTER": 63.9084, "MEAN_ANOMALY": 73.5792, "EPHEMERIS_TYPE": 0, "CLASSIFICATION_TYPE": "U", "NORAD_CAT_ID": 66950, "ELEMENT_SET_NO": 999, "REV_AT_EPOCH": 436, "BSTAR": -0.03893, "MEAN_MOTION_DOT": -0.02045434, "MEAN_MOTION_DDOT": 0}, "tle": {"line1": "1 66950U 25286AB  25361.50002315 -.02045434  00000+0 -38930-1 0  9999", "line2": "2 66950  53.1597 337.0805 0001494  63.9084  73.5792 15.50947486  4367"}}, "geometry": {"type": "Point", "coordinates": [-52.50763144208886, -31.960278600964905]}}, {"type": "Feature", "properties": {"norad_id": 66951, "name": "STARLINK-35999", "group": "last-30-days", "lat": -30.599031154954446, "lon": -50.941886202221525, "alt_km": 422.9471978511201, "timestamp": "2025-12-27T20:30:58.024291+00:00", "meta": {"OBJECT_NAME": "STARLINK-35999", "OBJECT_ID": "2025-286AC", "EPOCH": "2025-12-27T12:00:02.000160", "MEAN_MOTION": 15.50925205, "ECCENTRICITY": 0.0001598, "INCLINATION": 53.1597, "RA_OF_ASC_NODE": 337.0764, "ARG_OF_PERICENTER": 74.2121, "MEAN_ANOMALY": 65.2018, "EPHEMERIS_TYPE": 0, "CLASSIFICATION_TYPE": "U", "NORAD_CAT_ID": 66951, "ELEMENT_SET_NO": 999, "REV_AT_EPOCH": 436, "BSTAR": -0.038342, "MEAN_MOTION_DOT": -0.02016443, "MEAN_MOTION_DDOT": 0}, "tle": {"line1": "1 66951U 25286AC  25361.50002315 -.02016443  00000+0 -38342-1 0  9995", "line2": "2 66951  53.1597 337.0764 0001598  74.2121  65.2018 15.50925205  4368"}}, "geometry": {"type": "Point", "coordinates": [-50.941886202221525, -30.599031154954446]}}, {"type": "Feature", "properties": {"norad_id": 66952, "name": "STARLINK-36122", "group": "last-30-days", "lat": -33.303095992678855, "lon": -54.12206929294951, "alt_km": 423.0064581928409, "timestamp": "2025-12-27T20:30:58.024301+00:00", "meta": {"OBJECT_NAME": "STARLINK-36122", "OBJECT_ID": "2025-286AD", "EPOCH": "2025-12-27T12:00:02.000160", "MEAN_MOTION": 15.50943087, "ECCENTRICITY": 0.0001379, "INCLINATION": 53.1596, "RA_OF_ASC_NODE": 337.0847, "ARG_OF_PERICENTER": 67.2534, "MEAN_ANOMALY": 68.3179, "EPHEMERIS_TYPE": 0, "CLASSIFICATION_TYPE": "U", "NORAD_CAT_ID": 66952, "ELEMENT_SET_NO": 999, "REV_AT_EPOCH": 436, "BSTAR": -0.03876, "MEAN_MOTION_DOT": -0.02037125, "MEAN_MOTION_DDOT": 0}, "tle": {"line1": "1 66952U 25286AD  25361.50002315 -.02037125  00000+0 -38760-1 0  9990", "line2": "2 66952  53.1596 337.0847 0001379  67.2534  68.3179 15.50943087  4367"}}, "geometry": {"type": "Point", "coordinates": [-54.12206929294951, -33.303095992678855]}}, {"type": "Feature", "properties": {"norad_id": 66953, "name": "HULIANWANG DIGUI-114", "group": "last-30-days", "lat": 13.7560438368726, "lon": -18.478054837613143, "alt_km": 1020.5412448879888, "timestamp": "2025-12-27T20:30:58.024311+00:00", "meta": {"OBJECT_NAME": "HULIANWANG DIGUI-114", "OBJECT_ID": "2025-287A", "EPOCH": "2025-12-20T09:09:14.655168", "MEAN_MOTION": 13.66161866, "ECCENTRICITY": 0.00096738, "INCLINATION": 86.496, "RA_OF_ASC_NODE": 343.3747, "ARG_OF_PERICENTER": 185.0352, "MEAN_ANOMALY": 175.071, "EPHEMERIS_TYPE": 0, "CLASSIFICATION_TYPE": "U", "NORAD_CAT_ID": 66953, "ELEMENT_SET_NO": 999, "REV_AT_EPOCH": 157, "BSTAR": 3.033618e-06, "MEAN_MOTION_DOT": 1.9e-07, "MEAN_MOTION_DDOT": 0}, "tle": {"line1": "1 66953U 25287A   25354.38141962  .00000019  00000+0  30336-5 0  9995", "line2": "2 66953  86.4960 343.3747 0009673 185.0352 175.0710 13.66161866  1572"}}, "geometry": {"type": "Point", "coordinates": [-18.478054837613143, 13.7560438368726]}}, {"type": "Feature", "properties": {"norad_id": 66954, "name": "HULIANWANG DIGUI-115", "group": "last-30-days", "lat": -23.030085147878143, "lon": -20.808504652049226, "alt_km": 1029.6982147569706, "timestamp": "2025-12-27T20:30:58.024326+00:00", "meta": {"OBJECT_NAME": "HULIANWANG DIGUI-115", "OBJECT_ID": "2025-287B", "EPOCH": "2025-12-24T22:10:56.489088", "MEAN_MOTION": 13.63539042, "ECCENTRICITY": 0.0003385, "INCLINATION": 86.5036, "RA_OF_ASC_NODE": 341.7372, "ARG_OF_PERICENTER": 109.9724, "MEAN_ANOMALY": 250.1798, "EPHEMERIS_TYPE": 0, "CLASSIFICATION_TYPE": "U", "NORAD_CAT_ID": 66954, "ELEMENT_SET_NO": 999, "REV_AT_EPOCH": 219, "BSTAR": 8.442119e-06, "MEAN_MOTION_DOT": 2.3e-07, "MEAN_MOTION_DDOT": 0}, "tle": {"line1": "1 66954U 25287B   25358.92426492  .00000023  00000+0  84421-5 0  9993", "line2": "2 66954  86.5036 341.7372 0003385 109.9724 250.1798 13.63539042  2198"}}, "geometry": {"type": "Point", "coordinates": [-20.808504652049226, -23.030085147878143]}}, {"type": "Feature", "properties": {"norad_id": 66955, "name": "HULIANWANG DIGUI-116", "group": "last-30-days", "lat": -3.7805806332288197, "lon": -19.58220819091955, "alt_km": 1023.9110981571403, "timestamp": "2025-12-27T20:30:58.024336+00:00", "meta": {"OBJECT_NAME": "HULIANWANG DIGUI-116", "OBJECT_ID": "2025-287C", "EPOCH": "2025-12-24T23:52:55.515936", "MEAN_MOTION": 13.64194122, "ECCENTRICITY": 0.00016332, "INCLINATION": 86.4919, "RA_OF_ASC_NODE": 341.6856, "ARG_OF_PERICENTER": 94.3011, "MEAN_ANOMALY": 265.8333, "EPHEMERIS_TYPE": 0, "CLASSIFICATION_TYPE": "U", "NORAD_CAT_ID": 66955, "ELEMENT_SET_NO": 999, "REV_AT_EPOCH": 220, "BSTAR": 0.0001652864, "MEAN_MOTION_DOT": 1.48e-06, "MEAN_MOTION_DDOT": 0}, "tle": {"line1": "1 66955U 25287C   25358.99508699  .00000148  00000+0  16529-3 0  9991", "line2": "2 66955  86.4919 341.6856 0001633  94.3011 265.8333 13.64194122  2201"}}, "geometry": {"type": "Point", "coordinates": [-19.58220819091955, -3.7805806332288197]}}, {"type": "Feature", "properties": {"norad_id": 66956, "name": "HULIANWANG DIGUI-117", "group": "last-30-days", "lat": 14.229001177971776, "lon": -18.446711726979675, "alt_km": 1019.5756434811728, "timestamp": "2025-12-27T20:30:58.024346+00:00", "meta": {"OBJECT_NAME": "HULIANWANG DIGUI-117", "OBJECT_ID": "2025-287D", "EPOCH": "2025-12-24T22:03:29.281824", "MEAN_MOTION": 13.64670553, "ECCENTRICITY": 0.00010447, "INCLINATION": 86.4976, "RA_OF_ASC_NODE": 341.7257, "ARG_OF_PERICENTER": 103.5815, "MEAN_ANOMALY": 256.5458, "EPHEMERIS_TYPE": 0, "CLASSIFICATION_TYPE": "U", "NORAD_CAT_ID": 66956, "ELEMENT_SET_NO": 999, "REV_AT_EPOCH": 219, "BSTAR": 9.025962e-06, "MEAN_MOTION_DOT": 2.4e-07, "MEAN_MOTION_DDOT": 0}, "tle": {"line1": "1 66956U 25287D   25358.91908891  .00000024  00000+0  90260-5 0  9991", "line2": "2 66956  86.4976 341.7257 0001044 103.5815 256.5458 13.64670553  2192"}}, "geometry": {"type": "Point", "coordinates": [-18.446711726979675, 14.229001177971776]}}, {"type": "Feature", "properties": {"norad_id": 66957, "name": "HULIANWANG DIGUI-118", "group": "last-30-days", "lat": 74.61507491099084, "lon": -6.480339331231531, "alt_km": 1000.5108286696804, "timestamp": "2025-12-27T20:30:58.024357+00:00", "meta": {"OBJECT_NAME": "HULIANWANG DIGUI-118", "OBJECT_ID": "2025-287E", "EPOCH": "2025-12-21T00:50:13.849728", "MEAN_MOTION": 13.6751011, "ECCENTRICITY": 0.00054729, "INCLINATION": 86.4946, "RA_OF_ASC_NODE": 343.1304, "ARG_OF_PERICENTER": 170.9065, "MEAN_ANOMALY": 189.2194, "EPHEMERIS_TYPE": 0, "CLASSIFICATION_TYPE": "U", "NORAD_CAT_ID": 66957, "ELEMENT_SET_NO": 999, "REV_AT_EPOCH": 166, "BSTAR": 0.00013223305, "MEAN_MOTION_DOT": 1.28e-06, "MEAN_MOTION_DDOT": 0}, "tle": {"line1": "1 66957U 25287E   25355.03488252  .00000128  00000+0  13223-3 0  9993", "line2": "2 66957  86.4946 343.1304 0005472 170.9065 189.2194 13.67510110  1668"}}, "geometry": {"type": "Point", "coordinates": [-6.480339331231531, 74.61507491099084]}}, {"type": "Feature", "properties": {"norad_id": 66958, "name": "CZ-6A R/B", "group": "last-30-days", "lat": 82.94905894640841, "lon": 9.948797145967621, "alt_km": 834.4517592651482, "timestamp": "2025-12-27T20:30:58.024367+00:00", "meta": {"OBJECT_NAME": "CZ-6A R/B", "OBJECT_ID": "2025-287F", "EPOCH": "2025-12-27T06:21:02.012832", "MEAN_MOTION": 13.94921947, "ECCENTRICITY": 0.01070347, "INCLINATION": 86.5067, "RA_OF_ASC_NODE": 340.5789, "ARG_OF_PERICENTER": 58.4888, "MEAN_ANOMALY": 302.6688, "EPHEMERIS_TYPE": 0, "CLASSIFICATION_TYPE": "U", "NORAD_CAT_ID": 66958, "ELEMENT_SET_NO": 999, "REV_AT_EPOCH": 256, "BSTAR": 7.3967428e-05, "MEAN_MOTION_DOT": 1.23e-06, "MEAN_MOTION_DDOT": 0}, "tle": {"line1": "1 66958U 25287F   25361.26460663  .00000123  00000+0  73967-4 0  9999", "line2": "2 66958  86.5067 340.5789 0107034  58.4888 302.6688 13.94921947  2565"}}, "geometry": {"type": "Point", "coordinates": [9.948797145967621, 82.94905894640841]}}, {"type": "Feature", "properties": {"norad_id": 66959, "name": "STARLINK-35887", "group": "last-30-days", "lat": 3.2640022553397197, "lon": -108.06483589674126, "alt_km": 404.3284692547877, "timestamp": "2025-12-27T20:30:58.024378+00:00", "meta": {"OBJECT_NAME": "STARLINK-35887", "OBJECT_ID": "2025-288A", "EPOCH": "2025-12-27T12:00:02.000160", "MEAN_MOTION": 15.55697597, "ECCENTRICITY": 0.0001399, "INCLINATION": 42.9996, "RA_OF_ASC_NODE": 77.5333, "ARG_OF_PERICENTER": 273.8989, "MEAN_ANOMALY": 72.7278, "EPHEMERIS_TYPE": 0, "CLASSIFICATION_TYPE": "U", "NORAD_CAT_ID": 66959, "ELEMENT_SET_NO": 999, "REV_AT_EPOCH": 420, "BSTAR": -0.032616, "MEAN_MOTION_DOT": -0.02055238, "MEAN_MOTION_DDOT": 0}, "tle": {"line1": "1 66959U 25288A   25361.50002315 -.02055238  00000+0 -32616-1 0  9998", "line2": "2 66959  42.9996  77.5333 0001399 273.8989  72.7278 15.55697597  4200"}}, "geometry": {"type": "Point", "coordinates": [-108.06483589674126, 3.2640022553397197]}}]}